ONEWEB-0588             
1 55153U 23004P   26204.30131826  .00000081  00000+0  17224-3 0  9993
2 55153  87.9196 328.2870 0001959  83.9545 276.1811 13.18687011174452
ONEWEB-0598             
1 55154U 23004Q   26204.01974311  .00000095  00000+0  23243-3 0  9999
2 55154  87.8889  13.9333 0002520  94.4078 265.7338 13.11416109170596
ONEWEB-0599             
1 55155U 23004R   26203.86677328  .00000080  00000+0  17203-3 0  9993
2 55155  87.9153 358.7667 0001965  99.9574 260.1779 13.17647824172186
ONEWEB-0614             
1 55156U 23004S   26204.16725241  .00000299  00000+0  80861-3 0  9998
2 55156  87.8883  13.9116 0001671  86.5537 273.5783 13.11416040170550
ONEWEB-0616             
1 55157U 23004T   26203.90895895  .00000035  00000+0  57071-4 0  9999
2 55157  87.9153 358.7627 0002098 120.3501 239.7838 13.17648234172400
ONEWEB-0617             
1 55158U 23004U   26204.00278134  .00000512  00000+0  14080-2 0  9994
2 55158  87.8897  13.9372 0001756  83.0717 277.0611 13.11418155170555
ONEWEB-0618             
1 55159U 23004V   26204.29582083  .00005790  00000+0  32142-3 0  9990
2 55159  86.9108 162.9734 0013635 147.7744 212.4332 15.13460761187729
ONEWEB-0619             
1 55160U 23004W   26203.33353044  .00000031  00000+0  45676-4 0  9999
2 55160  87.9166 358.8606 0001427  96.0871 264.0423 13.17648502172229
ONEWEB-0620             
1 55161U 23004X   26204.22659311  .00000559  00000+0  15409-2 0  9999
2 55161  87.8889  13.8994 0002058  88.7542 271.3822 13.11417969170556
ONEWEB-0621             
1 55162U 23004Y   26204.17742544 -.00000140  00000+0 -43213-3 0  9998
2 55162  87.8892  13.9014 0001607  86.8339 273.2973 13.11414875170525
ONEWEB-0622             
1 55163U 23004Z   26204.18250870 -.00000361  00000+0 -10554-2 0  9992
2 55163  87.8896  13.9036 0001911  69.4504 290.6829 13.11415012170519
ONEWEB-0623             
1 55164U 23004AA  26203.70815676  .00000070  00000+0  14681-3 0  9992
2 55164  87.9152 358.8120 0001355  71.8178 288.3101 13.17648638172266
ONEWEB-0624             
1 55165U 23004AB  26204.31794792  .00000097  00000+0  23254-3 0  9991
2 55165  87.8978 343.3963 0001721  94.7768 265.3557 13.12928068172816
ONEWEB-0625             
1 55166U 23004AC  26204.15364621  .00000030  00000+0  44242-4 0  9996
2 55166  87.9154 358.7202 0001773  99.3318 260.8014 13.17648020172314
ONEWEB-0626             
1 55167U 23004AD  26203.99165987  .00000064  00000+0  13276-3 0  9991
2 55167  87.9155 358.7518 0002155  95.8744 264.2633 13.17648643172298
ONEWEB-0627             
1 55168U 23004AE  26203.90390725  .00000146  00000+0  34375-3 0  9997
2 55168  87.9158 358.7697 0001458  81.9953 278.1344 13.17649431172281
