{"fetched_at":"2026-07-23T17:55:08.470Z","source":"https://celestrak.org/NORAD/elements/gp.php?GROUP=oneweb&FORMAT=JSON","constellation":"oneweb","records":[{"OBJECT_NAME":"ONEWEB-0588","OBJECT_ID":"2023-004P","EPOCH":"2026-07-23T07:13:53.897664","CLASSIFICATION_TYPE":"U","MEAN_MOTION":13.18687011,"ECCENTRICITY":0.00019596,"INCLINATION":87.9196,"RA_OF_ASC_NODE":328.287,"ARG_OF_PERICENTER":83.9545,"MEAN_ANOMALY":276.1811,"EPHEMERIS_TYPE":0,"NORAD_CAT_ID":55153,"ELEMENT_SET_NO":999,"REV_AT_EPOCH":17445,"BSTAR":0.00017223911,"MEAN_MOTION_DOT":8.1e-7,"MEAN_MOTION_DDOT":0},{"OBJECT_NAME":"ONEWEB-0598","OBJECT_ID":"2023-004Q","EPOCH":"2026-07-23T00:28:25.804704","CLASSIFICATION_TYPE":"U","MEAN_MOTION":13.11416109,"ECCENTRICITY":0.00025202,"INCLINATION":87.8889,"RA_OF_ASC_NODE":13.9333,"ARG_OF_PERICENTER":94.4078,"MEAN_ANOMALY":265.7338,"EPHEMERIS_TYPE":0,"NORAD_CAT_ID":55154,"ELEMENT_SET_NO":999,"REV_AT_EPOCH":17059,"BSTAR":0.00023242802,"MEAN_MOTION_DOT":9.5e-7,"MEAN_MOTION_DDOT":0},{"OBJECT_NAME":"ONEWEB-0599","OBJECT_ID":"2023-004R","EPOCH":"2026-07-22T20:48:09.211392","CLASSIFICATION_TYPE":"U","MEAN_MOTION":13.17647824,"ECCENTRICITY":0.00019656,"INCLINATION":87.9153,"RA_OF_ASC_NODE":358.7667,"ARG_OF_PERICENTER":99.9574,"MEAN_ANOMALY":260.1779,"EPHEMERIS_TYPE":0,"NORAD_CAT_ID":55155,"ELEMENT_SET_NO":999,"REV_AT_EPOCH":17218,"BSTAR":0.00017202973,"MEAN_MOTION_DOT":8e-7,"MEAN_MOTION_DDOT":0},{"OBJECT_NAME":"ONEWEB-0614","OBJECT_ID":"2023-004S","EPOCH":"2026-07-23T04:00:50.608224","CLASSIFICATION_TYPE":"U","MEAN_MOTION":13.1141604,"ECCENTRICITY":0.00016717,"INCLINATION":87.8883,"RA_OF_ASC_NODE":13.9116,"ARG_OF_PERICENTER":86.5537,"MEAN_ANOMALY":273.5783,"EPHEMERIS_TYPE":0,"NORAD_CAT_ID":55156,"ELEMENT_SET_NO":999,"REV_AT_EPOCH":17055,"BSTAR":0.00080861467,"MEAN_MOTION_DOT":0.00000299,"MEAN_MOTION_DDOT":0},{"OBJECT_NAME":"ONEWEB-0616","OBJECT_ID":"2023-004T","EPOCH":"2026-07-22T21:48:54.053280","CLASSIFICATION_TYPE":"U","MEAN_MOTION":13.17648234,"ECCENTRICITY":0.00020983,"INCLINATION":87.9153,"RA_OF_ASC_NODE":358.7627,"ARG_OF_PERICENTER":120.3501,"MEAN_ANOMALY":239.7838,"EPHEMERIS_TYPE":0,"NORAD_CAT_ID":55157,"ELEMENT_SET_NO":999,"REV_AT_EPOCH":17240,"BSTAR":0.000057070669,"MEAN_MOTION_DOT":3.5e-7,"MEAN_MOTION_DDOT":0},{"OBJECT_NAME":"ONEWEB-0617","OBJECT_ID":"2023-004U","EPOCH":"2026-07-23T00:04:00.307776","CLASSIFICATION_TYPE":"U","MEAN_MOTION":13.11418155,"ECCENTRICITY":0.00017564,"INCLINATION":87.8897,"RA_OF_ASC_NODE":13.9372,"ARG_OF_PERICENTER":83.0717,"MEAN_ANOMALY":277.0611,"EPHEMERIS_TYPE":0,"NORAD_CAT_ID":55158,"ELEMENT_SET_NO":999,"REV_AT_EPOCH":17055,"BSTAR":0.0014080284,"MEAN_MOTION_DOT":0.00000512,"MEAN_MOTION_DDOT":0},{"OBJECT_NAME":"ONEWEB-0618","OBJECT_ID":"2023-004V","EPOCH":"2026-07-23T07:05:58.919712","CLASSIFICATION_TYPE":"U","MEAN_MOTION":15.13460761,"ECCENTRICITY":0.00136357,"INCLINATION":86.9108,"RA_OF_ASC_NODE":162.9734,"ARG_OF_PERICENTER":147.7744,"MEAN_ANOMALY":212.4332,"EPHEMERIS_TYPE":0,"NORAD_CAT_ID":55159,"ELEMENT_SET_NO":999,"REV_AT_EPOCH":18772,"BSTAR":0.00032142305,"MEAN_MOTION_DOT":0.0000579,"MEAN_MOTION_DDOT":0},{"OBJECT_NAME":"ONEWEB-0619","OBJECT_ID":"2023-004W","EPOCH":"2026-07-22T08:00:17.030016","CLASSIFICATION_TYPE":"U","MEAN_MOTION":13.17648502,"ECCENTRICITY":0.00014273,"INCLINATION":87.9166,"RA_OF_ASC_NODE":358.8606,"ARG_OF_PERICENTER":96.0871,"MEAN_ANOMALY":264.0423,"EPHEMERIS_TYPE":0,"NORAD_CAT_ID":55160,"ELEMENT_SET_NO":999,"REV_AT_EPOCH":17222,"BSTAR":0.000045676302,"MEAN_MOTION_DOT":3.1e-7,"MEAN_MOTION_DDOT":0},{"OBJECT_NAME":"ONEWEB-0620","OBJECT_ID":"2023-004X","EPOCH":"2026-07-23T05:26:17.644704","CLASSIFICATION_TYPE":"U","MEAN_MOTION":13.11417969,"ECCENTRICITY":0.00020581,"INCLINATION":87.8889,"RA_OF_ASC_NODE":13.8994,"ARG_OF_PERICENTER":88.7542,"MEAN_ANOMALY":271.3822,"EPHEMERIS_TYPE":0,"NORAD_CAT_ID":55161,"ELEMENT_SET_NO":999,"REV_AT_EPOCH":17055,"BSTAR":0.0015409432,"MEAN_MOTION_DOT":0.00000559,"MEAN_MOTION_DDOT":0},{"OBJECT_NAME":"ONEWEB-0621","OBJECT_ID":"2023-004Y","EPOCH":"2026-07-23T04:15:29.558016","CLASSIFICATION_TYPE":"U","MEAN_MOTION":13.11414875,"ECCENTRICITY":0.00016076,"INCLINATION":87.8892,"RA_OF_ASC_NODE":13.9014,"ARG_OF_PERICENTER":86.8339,"MEAN_ANOMALY":273.2973,"EPHEMERIS_TYPE":0,"NORAD_CAT_ID":55162,"ELEMENT_SET_NO":999,"REV_AT_EPOCH":17052,"BSTAR":-0.00043212691,"MEAN_MOTION_DOT":-0.0000014,"MEAN_MOTION_DDOT":0},{"OBJECT_NAME":"ONEWEB-0622","OBJECT_ID":"2023-004Z","EPOCH":"2026-07-23T04:22:48.751680","CLASSIFICATION_TYPE":"U","MEAN_MOTION":13.11415012,"ECCENTRICITY":0.0001911,"INCLINATION":87.8896,"RA_OF_ASC_NODE":13.9036,"ARG_OF_PERICENTER":69.4504,"MEAN_ANOMALY":290.6829,"EPHEMERIS_TYPE":0,"NORAD_CAT_ID":55163,"ELEMENT_SET_NO":999,"REV_AT_EPOCH":17051,"BSTAR":-0.0010554459,"MEAN_MOTION_DOT":-0.00000361,"MEAN_MOTION_DDOT":0},{"OBJECT_NAME":"ONEWEB-0623","OBJECT_ID":"2023-004AA","EPOCH":"2026-07-22T16:59:44.744064","CLASSIFICATION_TYPE":"U","MEAN_MOTION":13.17648638,"ECCENTRICITY":0.00013558,"INCLINATION":87.9152,"RA_OF_ASC_NODE":358.812,"ARG_OF_PERICENTER":71.8178,"MEAN_ANOMALY":288.3101,"EPHEMERIS_TYPE":0,"NORAD_CAT_ID":55164,"ELEMENT_SET_NO":999,"REV_AT_EPOCH":17226,"BSTAR":0.00014681249,"MEAN_MOTION_DOT":7e-7,"MEAN_MOTION_DDOT":0},{"OBJECT_NAME":"ONEWEB-0624","OBJECT_ID":"2023-004AB","EPOCH":"2026-07-23T07:37:50.700288","CLASSIFICATION_TYPE":"U","MEAN_MOTION":13.12928068,"ECCENTRICITY":0.00017219,"INCLINATION":87.8978,"RA_OF_ASC_NODE":343.3963,"ARG_OF_PERICENTER":94.7768,"MEAN_ANOMALY":265.3557,"EPHEMERIS_TYPE":0,"NORAD_CAT_ID":55165,"ELEMENT_SET_NO":999,"REV_AT_EPOCH":17281,"BSTAR":0.00023254048,"MEAN_MOTION_DOT":9.7e-7,"MEAN_MOTION_DDOT":0},{"OBJECT_NAME":"ONEWEB-0625","OBJECT_ID":"2023-004AC","EPOCH":"2026-07-23T03:41:15.032544","CLASSIFICATION_TYPE":"U","MEAN_MOTION":13.1764802,"ECCENTRICITY":0.0001773,"INCLINATION":87.9154,"RA_OF_ASC_NODE":358.7202,"ARG_OF_PERICENTER":99.3318,"MEAN_ANOMALY":260.8014,"EPHEMERIS_TYPE":0,"NORAD_CAT_ID":55166,"ELEMENT_SET_NO":999,"REV_AT_EPOCH":17231,"BSTAR":0.000044241607,"MEAN_MOTION_DOT":3e-7,"MEAN_MOTION_DDOT":0},{"OBJECT_NAME":"ONEWEB-0626","OBJECT_ID":"2023-004AD","EPOCH":"2026-07-22T23:47:59.412768","CLASSIFICATION_TYPE":"U","MEAN_MOTION":13.17648643,"ECCENTRICITY":0.00021557,"INCLINATION":87.9155,"RA_OF_ASC_NODE":358.7518,"ARG_OF_PERICENTER":95.8744,"MEAN_ANOMALY":264.2633,"EPHEMERIS_TYPE":0,"NORAD_CAT_ID":55167,"ELEMENT_SET_NO":999,"REV_AT_EPOCH":17229,"BSTAR":0.00013276346,"MEAN_MOTION_DOT":6.4e-7,"MEAN_MOTION_DDOT":0},{"OBJECT_NAME":"ONEWEB-0627","OBJECT_ID":"2023-004AE","EPOCH":"2026-07-22T21:41:37.586400","CLASSIFICATION_TYPE":"U","MEAN_MOTION":13.17649431,"ECCENTRICITY":0.00014587,"INCLINATION":87.9158,"RA_OF_ASC_NODE":358.7697,"ARG_OF_PERICENTER":81.9953,"MEAN_ANOMALY":278.1344,"EPHEMERIS_TYPE":0,"NORAD_CAT_ID":55168,"ELEMENT_SET_NO":999,"REV_AT_EPOCH":17228,"BSTAR":0.00034375203,"MEAN_MOTION_DOT":0.00000146,"MEAN_MOTION_DDOT":0}]}
